TDRS 3                  
1 19548U 88091B   26180.29370250 -.00000292  00000+0  00000+0 0  9990
2 19548  12.5924 340.9209 0037385 356.8303 356.5018  1.00269802125502
FLTSATCOM 8 (USA 46)    
1 20253U 89077A   26180.39917263 -.00000361  00000+0  00000+0 0  9999
2 20253  12.4180 351.0897 0003809  61.1791 134.6850  1.00271186260683
SKYNET 4C               
1 20776U 90079A   26162.20198486  .00000132  00000+0  00000+0 0  9996
2 20776  13.3424 349.8525 0002400  96.2313 279.5534  1.00274127130831
TDRS 5                  
1 21639U 91054B   26179.69978687  .00000088  00000+0  00000+0 0  9999
2 21639  14.0695 353.6930 0006325 262.1352 105.2946  1.00268185127833
TDRS 6                  
1 22314U 93003B   26180.42177029 -.00000292  00000+0  00000+0 0  9998
2 22314  14.1829 356.9673 0008653 180.0912 206.3192  1.00266887122535
UFO 2 (USA 95)          
1 22787U 93056A   26179.93878728  .00000129  00000+0  00000+0 0  9996
2 22787  11.8987   3.4895 0004393   8.5156 271.6187  1.00274265118666
USA 99 (MILSTAR-1 1)    
1 22988U 94009A   26180.50450477 -.00000141  00000+0  00000+0 0  9995
2 22988  17.6443  27.5773 0000788 183.6378 184.2948  0.98722645 33078
UFO 4 (USA 108)         
1 23467U 95003A   26180.36155777 -.00000017  00000+0  00000+0 0  9994
2 23467   9.6865  13.1436 0002937  81.9694 124.7022  1.00273968115072
TDRS 7                  
1 23613U 95035B   26180.46350052 -.00000235  00000+0  00000+0 0  9998
2 23613  13.3720 348.1050 0011721  82.6299 102.7295  1.00278040113375
USA 115 (MILSTAR-1 2)   
1 23712U 95060A   26180.49930475 -.00000209  00000+0  00000+0 0  9993
2 23712  14.0768   3.6553 0002402 138.2694 225.2498  1.00363709 33014
INMARSAT 3-F1           
1 23839U 96020A   26180.20947626 -.00000036  00000+0  00000+0 0  9993
2 23839  10.6252  46.5232 0003884  69.3824 128.9089  0.99978051110377
INMARSAT 3-F2           
1 24307U 96053A   26180.54433949 -.00000328  00000+0  00000+0 0  9999
2 24307   9.8840  53.8098 0006414  41.0263 156.0805  0.99999157109048
INMARSAT 3-F3           
1 24674U 96070A   26179.81029785  .00000123  00000+0  00000+0 0  9994
2 24674  10.3425  49.5414 0003284  51.5883 137.9836  0.99988033108021
USA 134                 
1 25019U 97065A   26179.56825436 -.00000060  00000+0  00000+0 0  9993
2 25019  12.7971  21.6365 0002924 348.2107 358.9701  1.00270499 33068
INMARSAT 3-F5           
1 25153U 98006B   26179.00942799 -.00000288  00000+0  00000+0 0  9991
2 25153   9.7164  53.1524 0004351  39.2956 133.0931  1.00272536104003
ABS-6                   
1 25924U 99053A   26180.47735082 -.00000107  00000+0  00000+0 0  9998
2 25924   0.0516 273.4004 0004218 192.8746 142.1431  1.00277121 97966
UFO 10 (USA 146)        
1 25967U 99063A   26180.37000919 -.00000185  00000+0  00000+0 0  9995
2 25967   9.8449  27.1462 0001553  73.9701 286.4977  1.00268568 97463
ASIASTAR                
1 26107U 00016A   26180.53803912 -.00000330  00000+0  00000+0 0  9996
2 26107   9.1569  58.0215 0004600  38.2649 120.0460  1.00271386 96041
USA 149 (DSP 20)        
1 26356U 00024A   26180.30808424  .00000098  00000+0  00000+0 0  9999
2 26356  13.1791  11.7644 0001458 323.5151 247.8772  1.00281031 33039
TDRS 8                  
1 26388U 00034A   26179.91747889 -.00000194  00000+0  00000+0 0  9995
2 26388  12.7016  31.2214 0004679  24.8820 275.9542  1.00275445 95296
NSS-11                  
1 26554U 00059A   26180.50392100  .00000034  00000+0  00000+0 0  9998
2 26554   2.1572  81.2547 0003133  14.4123 179.3338  1.00273315 41419
USA 153                 
1 26575U 00065A   26180.47249748 -.00000323  00000+0  00000+0 0  9995
2 26575  11.6449  35.3175 0003073  54.1070 132.5711  1.00267656 33050
AMC-6                   
1 26580U 00067A   26180.49046470  .00000099  00000+0  00000+0 0  9991
2 26580   0.1826  83.4372 0004036  25.6074 210.0565  1.00273699 94014
USA 157 (MILSTAR-2 2)   
1 26715U 01009A   26179.70325356  .00000112  00000+0  00000+0 0  9999
2 26715  11.5548  19.6916 0039599 178.1456 182.1128  1.00268229 33050
INTELSAT 902 (IS-902)   
1 26900U 01039A   26180.50727811 -.00000278  00000+0  00000+0 0  9994
2 26900   6.1472  71.6334 0004207  26.8752 311.5855  1.00270451 90812
USA 164 (MILSTAR-2 3)   
1 27168U 02001A   26179.94874226  .00000101  00000+0  00000+0 0  9994
2 27168  11.1930  21.8343 0099502   8.8197 246.8473  1.00271817 33074
INTELSAT 904 (IS-904)   
1 27380U 02007A   26180.51065814 -.00000220  00000+0  00000+0 0  9999
2 27380   6.9493  69.0380 0006456  13.3517 347.5589  1.00272419 51890
DIRECTV 5 (TEMPO 1)     
1 27426U 02023A   26180.43100237 -.00000050  00000+0  00000+0 0  9999
2 27426   4.9078  75.1624 0003569  28.9037 218.5033  1.00271738 88241
INTELSAT 905 (IS-905)   
1 27438U 02027A   26180.48725402  .00000099  00000+0  00000+0 0  9990
2 27438   6.7830  69.6539 0004145  30.1794 215.9422  1.00273023 51487
GALAXY 3C (G-3C)        
1 27445U 02030A   26180.32336424 -.00000145  00000+0  00000+0 0  9990
2 27445   3.7628  77.8239 0001999  25.9605 195.2016  1.00272254 46615
INTELSAT 906 (IS-906)   
1 27513U 02041A   26180.24455838  .00000019  00000+0  00000+0 0  9999
2 27513   5.8323  72.7735 0004154   9.8928 346.8485  1.00272645 87147
