OBJECT_NAME,OBJECT_ID,EPOCH,MEAN_MOTION,ECCENTRICITY,INCLINATION,RA_OF_ASC_NODE,ARG_OF_PERICENTER,MEAN_ANOMALY,EPHEMERIS_TYPE,CLASSIFICATION_TYPE,NORAD_CAT_ID,ELEMENT_SET_NO,REV_AT_EPOCH,BSTAR,MEAN_MOTION_DOT,MEAN_MOTION_DDOT
TDRS 3,1988-091B,2026-06-29T07:02:55.896000,1.00269802,.0037385,12.5924,340.9209,356.8303,356.5018,0,U,19548,999,12550,0,-.292E-5,0
FLTSATCOM 8 (USA 46),1989-077A,2026-06-29T09:34:48.515232,1.00271186,.0003809,12.4180,351.0897,61.1791,134.6850,0,U,20253,999,26068,0,-.361E-5,0
SKYNET 4C,1990-079A,2026-06-11T04:50:51.491904,1.00274127,.00024002,13.3424,349.8525,96.2313,279.5534,0,U,20776,999,13083,0,.132E-5,0
TDRS 5,1991-054B,2026-06-28T16:47:41.585568,1.00268185,.00063251,14.0695,353.6930,262.1352,105.2946,0,U,21639,999,12783,0,.88E-6,0
TDRS 6,1993-003B,2026-06-29T10:07:20.953056,1.00266887,.0008653,14.1829,356.9673,180.0912,206.3192,0,U,22314,999,12253,0,-.292E-5,0
UFO 2 (USA 95),1993-056A,2026-06-28T22:31:51.220992,1.00274265,.00043935,11.8987,3.4895,8.5156,271.6187,0,U,22787,999,11866,0,.129E-5,0
USA 99 (MILSTAR-1 1),1994-009A,2026-06-29T12:06:29.212128,0.98722645,.0000788,17.6443,27.5773,183.6378,184.2948,0,U,22988,999,3307,0,-.141E-5,0
UFO 4 (USA 108),1995-003A,2026-06-29T08:40:38.591328,1.00273968,.0002937,9.6865,13.1436,81.9694,124.7022,0,U,23467,999,11507,0,-.17E-6,0
TDRS 7,1995-035B,2026-06-29T11:07:26.444928,1.00278040,.0011721,13.3720,348.1050,82.6299,102.7295,0,U,23613,999,11337,0,-.235E-5,0
USA 115 (MILSTAR-1 2),1995-060A,2026-06-29T11:58:59.930400,1.00363709,.0002402,14.0768,3.6553,138.2694,225.2498,0,U,23712,999,3301,0,-.209E-5,0
INMARSAT 3-F1,1996-020A,2026-06-29T05:01:38.748864,0.99978051,.0003884,10.6252,46.5232,69.3824,128.9089,0,U,23839,999,11037,0,-.36E-6,0
INMARSAT 3-F2,1996-053A,2026-06-29T13:03:50.931936,0.99999157,.0006414,9.8840,53.8098,41.0263,156.0805,0,U,24307,999,10904,0,-.328E-5,0
INMARSAT 3-F3,1996-070A,2026-06-28T19:26:49.734240,0.99988033,.00032846,10.3425,49.5414,51.5883,137.9836,0,U,24674,999,10802,0,.123E-5,0
USA 134,1997-065A,2026-06-28T13:38:17.176704,1.00270499,.00029246,12.7971,21.6365,348.2107,358.9701,0,U,25019,999,3306,0,-.6E-6,0
INMARSAT 3-F5,1998-006B,2026-06-28T00:13:34.578336,1.00272536,.00043519,9.7164,53.1524,39.2956,133.0931,0,U,25153,999,10400,0,-.288E-5,0
ABS-6,1999-053A,2026-06-29T11:27:23.110848,1.00277121,.0004218,0.0516,273.4004,192.8746,142.1431,0,U,25924,999,9796,0,-.107E-5,0
UFO 10 (USA 146),1999-063A,2026-06-29T08:52:48.794016,1.00268568,.0001553,9.8449,27.1462,73.9701,286.4977,0,U,25967,999,9746,0,-.185E-5,0
ASIASTAR,2000-016A,2026-06-29T12:54:46.579968,1.00271386,.00046,9.1569,58.0215,38.2649,120.0460,0,U,26107,999,9604,0,-.33E-5,0
USA 149 (DSP 20),2000-024A,2026-06-29T07:23:38.478336,1.00281031,.0001458,13.1791,11.7644,323.5151,247.8772,0,U,26356,999,3303,0,.98E-6,0
TDRS 8,2000-034A,2026-06-28T22:01:10.176096,1.00275445,.00046791,12.7016,31.2214,24.8820,275.9542,0,U,26388,999,9529,0,-.194E-5,0
NSS-11,2000-059A,2026-06-29T12:05:38.774400,1.00273315,.0003133,2.1572,81.2547,14.4123,179.3338,0,U,26554,999,4141,0,.34E-6,0
USA 153,2000-065A,2026-06-29T11:20:23.782272,1.00267656,.0003073,11.6449,35.3175,54.1070,132.5711,0,U,26575,999,3305,0,-.323E-5,0
AMC-6,2000-067A,2026-06-29T11:46:16.150080,1.00273699,.0004036,0.1826,83.4372,25.6074,210.0565,0,U,26580,999,9401,0,.99E-6,0
USA 157 (MILSTAR-2 2),2001-009A,2026-06-28T16:52:41.107584,1.00268229,.00395994,11.5548,19.6916,178.1456,182.1128,0,U,26715,999,3305,0,.112E-5,0
INTELSAT 902 (IS-902),2001-039A,2026-06-29T12:10:28.828704,1.00270451,.0004207,6.1472,71.6334,26.8752,311.5855,0,U,26900,999,9081,0,-.278E-5,0
USA 164 (MILSTAR-2 3),2002-001A,2026-06-28T22:46:11.331264,1.00271817,.00995029,11.1930,21.8343,8.8197,246.8473,0,U,27168,999,3307,0,.101E-5,0
INTELSAT 904 (IS-904),2002-007A,2026-06-29T12:15:20.863296,1.00272419,.0006456,6.9493,69.0380,13.3517,347.5589,0,U,27380,999,5189,0,-.22E-5,0
DIRECTV 5 (TEMPO 1),2002-023A,2026-06-29T10:20:38.604768,1.00271738,.0003569,4.9078,75.1624,28.9037,218.5033,0,U,27426,999,8824,0,-.5E-6,0
INTELSAT 905 (IS-905),2002-027A,2026-06-29T11:41:38.747328,1.00273023,.0004145,6.7830,69.6539,30.1794,215.9422,0,U,27438,999,5148,0,.99E-6,0
GALAXY 3C (G-3C),2002-030A,2026-06-29T07:45:38.670336,1.00272254,.0001999,3.7628,77.8239,25.9605,195.2016,0,U,27445,999,4661,0,-.145E-5,0
INTELSAT 906 (IS-906),2002-041A,2026-06-29T05:52:09.844032,1.00272645,.0004154,5.8323,72.7735,9.8928,346.8485,0,U,27513,999,8714,0,.19E-6,0
